{
  "norad_id": 49449,
  "name": "STARLINK-3137",
  "history": [
    {
      "epoch": "2026-03-28T18:29:22.679232",
      "apogee_km": 439.85139281170814,
      "perigee_km": 435.31621218972396,
      "latitude_deg": -28.760089885027977,
      "longitude_deg": -81.14146752026863,
      "semi_major_axis_km": 6815.720802500716,
      "eccentricity": 0.0003327,
      "inclination_deg": 53.2155,
      "raan_deg": 115.3469,
      "arg_perigee_deg": 38.357,
      "mean_anomaly_deg": 321.7673,
      "mean_motion_rev_day": 15.42890391
    },
    {
      "epoch": "2026-03-29T05:22:19.629984",
      "apogee_km": 439.78625477167225,
      "perigee_km": 435.25520551267437,
      "latitude_deg": -53.194905042007626,
      "longitude_deg": -37.611522240098566,
      "semi_major_axis_km": 6815.657730142173,
      "eccentricity": 0.0003324,
      "inclination_deg": 53.2158,
      "raan_deg": 113.2029,
      "arg_perigee_deg": 40.4203,
      "mean_anomaly_deg": 319.7051,
      "mean_motion_rev_day": 15.42911808
    }
  ]
}